1 39509U 14006B   15080.21780150  .00000126  00000-0  00000+0 0  9993
2 39509 000.0162 107.7050 0001482 292.1515 254.7305 01.00272575  4332
1 39509U 14006B   15079.83988361  .00000000  00000-0  10000-3 0  9999
2 39509 000.0173 127.7454 0003675 317.5637 072.8687 01.00272098  4340
1 39509U 14006B   15079.83631447  .00000000  00000-0  10000-3 0  9999
2 39509 000.0167 123.0250 0003167 289.7609 104.1108 01.00271757  4349
1 39509U 14006B   15078.63496799  .00000127  00000-0  00000+0 0  9990
2 39509 000.0146 107.8416 0001488 292.8892 042.4755 01.00271850  4327
1 39509U 14006B   15077.17582015  .00000130  00000-0  00000+0 0  9999
2 39509 000.0108 110.8185 0001469 285.0504 240.6103 01.00271230  4304
1 39509U 14006B   15075.67873104  .00000133  00000-0  00000+0 0  9997
2 39509 000.0078 111.2019 0001594 286.9673 057.8867 01.00270381  4296
1 39509U 14006B   15075.01448211  .00000135  00000-0  00000+0 0  9994
2 39509 000.0065 111.0687 0001421 276.4348 188.7765 01.00270485  4288
1 39509U 14006B   15074.81891069  .00000000  00000-0  10000-3 0  9990
2 39509 000.0258 133.2786 0004983 142.4984 229.9459 01.00273879  4280
1 39509U 14006B   15073.09684152  .00000140  00000-0  00000+0 0  9992
2 39509 000.0035 139.4212 0001325 216.7196 247.9235 01.00275474  4265
1 39509U 14006B   15071.94989674  .00000142  00000-0  00000+0 0  9993
2 39509 000.0033 149.8697 0001290 196.4808 203.6746 01.00275178  4256
1 39509U 14006B   15070.81366817  .00000144  00000-0  00000+0 0  9998
2 39509 000.0024 144.3417 0001279 202.6462 152.8636 01.00274681  4249
1 39509U 14006B   15069.80592047  .00000145  00000-0  00000+0 0  9992
2 39509 000.0050 123.3617 0001292 222.2190 150.4804 01.00274303  4239
1 39509U 14006B   15068.77911576  .00000145  00000-0  00000+0 0  9999
2 39509 000.0051 102.7445 0001278 235.5995 147.0510 01.00274281  4224
1 39509U 14006B   15065.20958291  .00000139  00000-0  00000+0 0  9992
2 39509 000.0203 184.1401 0001498 162.7925 289.8974 01.00273496  4188
1 39509U 14006B   15063.06035984  .00000134  00000-0  00000+0 0  9994
2 39509 000.0151 101.0019 0001384 226.8857 253.0971 01.00272195  4166
1 39509U 14006B   15061.22743931  .00000130  00000-0  00000+0 0  9994
2 39509 000.0115 100.9364 0001461 221.7969 316.5949 01.00271141  4149
1 39509U 14006B   15058.82813471  .00000128  00000-0  00000+0 0  9990
2 39509 000.0062 110.7990 0001354 198.0918 184.3466 01.00274929  4125
1 39509U 14006B   15058.18514697  .00000127  00000-0  00000+0 0  9996
2 39509 000.0039 130.5773 0001286 197.6708 292.8768 01.00274795  4114
1 39509U 14006B   15057.71479480  .00000127  00000-0  00000+0 0  9994
2 39509 000.0038 189.2151 0001200 142.1394 119.9771 01.00274617  4112
1 39509U 14006B   15056.22274384  .00000128  00000-0  00000+0 0  9996
2 39509 000.0054 231.1375 0001124 099.7626 301.8075 01.00273744  4091
1 39509U 14006B   15055.21818860  .00000128  00000-0  00000+0 0  9997
2 39509 000.0065 234.6328 0001117 095.2029 300.2372 01.00273280  4086
1 39509U 14006B   15053.79637372  .00000129  00000-0  00000+0 0  9996
2 39509 000.0083 239.6461 0001099 084.0439 153.1252 01.00272684  4077
1 39509U 14006B   15051.80430429  .00000130  00000-0  00000+0 0  9992
2 39509 000.0086 240.5720 0001077 084.0385 153.0975 01.00272018  4055
1 39509U 14006B   15050.81828866  .00000000  00000-0  10000-3 0  9999
2 39509 000.0203 120.7780 0000829 224.3602 136.6415 01.00268950  4052
1 39509U 14006B   15050.81674020  .00000000  00000-0  10000-3 0  9990
2 39509 000.0220 119.6883 0000802 224.2709 137.2606 01.00268893  4044
1 39509U 14006B   15050.66379175  .00000132  00000-0  00000+0 0  9997
2 39509 000.0090 240.8207 0001064 089.0374 096.1431 01.00271673  4041
1 39509U 14006B   15049.81047563  .00000000  00000-0  10000-3 0  9994
2 39509 000.0172 118.9236 0001107 208.8761 150.1691 01.00268657  4034
1 39509U 14006B   15049.76726490  .00000000  00000-0  10000-3 0  9991
2 39509 000.0219 085.7644 0001725 301.2771 075.3268 01.00268537  4041
1 39509U 14006B   15049.75945623  .00000000  00000-0  10000-3 0  9991
2 39509 000.0232 080.9003 0002871 328.0304 050.6097 01.00268292  4048
1 39509U 14006B   15047.48904228  .00000140  00000-0  00000+0 0  9995
2 39509 000.0183 106.8391 0001342 219.5945 033.5340 01.00270703  4016
1 39509U 14006B   15044.20257244  .00000149  00000-0  00000+0 0  9990
2 39509 000.0062 097.0217 0001457 243.3298 273.2833 01.00275133  3979
1 39509U 14006B   15043.06812446  .00000151  00000-0  00000+0 0  9997
2 39509 000.0046 100.7122 0001457 231.9528 231.4410 01.00274711  3964
1 39509U 14006B   15041.93002397  .00000151  00000-0  00000+0 0  9997
2 39509 000.0028 112.0311 0001477 219.0161 182.2115 01.00274221  3952
1 39509U 14006B   15041.67877135  .00000151  00000-0  00000+0 0  9998
2 39509 000.0180 072.9769 0001587 239.1175 110.4718 01.00274846  3957
1 39509U 14006B   15038.82070671  .00000148  00000-0  00000+0 0  9997
2 39509 000.0181 071.3102 0001566 240.5572 158.9600 01.00273664  3927
1 39509U 14006B   15037.62799273  .00000146  00000-0  00000+0 0  9998
2 39509 000.0164 071.3539 0001577 241.5920 087.3243 01.00273166  3916
1 39509U 14006B   15036.22965574  .00000143  00000-0  00000+0 0  9999
2 39509 000.0163 075.2762 0001599 237.2341 302.9760 01.00272467  3899
1 39509U 14006B   15035.21102049  .00000141  00000-0  00000+0 0  9995
2 39509 000.0160 072.9291 0001588 238.9091 295.9349 01.00272005  3886
1 39509U 14006B   15034.19982560  .00000139  00000-0  00000+0 0  9992
2 39509 000.0172 080.9247 0001594 231.5010 290.3225 01.00271642  3873
1 39509U 14006B   15033.18954091  .00000138  00000-0  00000+0 0  9997
2 39509 000.0150 079.5736 0001546 233.5477 284.9299 01.00271075  3861
1 39509U 14006B   15030.21816979  .00000136  00000-0  00000+0 0  9998
2 39509 000.0133 051.2241 0001195 264.9127 289.3093 01.00274298  3838
1 39509U 14006B   15029.13805207  .00000137  00000-0  00000+0 0  9990
2 39509 000.0129 047.4215 0001174 263.7198 264.3898 01.00273748  3827
1 39509U 14006B   15027.72154744  .00000000  00000-0  10000-3 0  9990
2 39509 000.0143 061.0286 0000829 259.8315 103.3374 01.00270477  3812
1 39509U 14006B   15027.23512953  .00000137  00000-0  00000+0 0  9992
2 39509 000.0108 044.6190 0001150 264.6768 299.3004 01.00272916  3803
1 39509U 14006B   15026.74250376  .00000138  00000-0  00000+0 0  9996
2 39509 000.0130 041.8035 0001045 269.9786 118.9878 01.00273030  3809
1 39509U 14006B   15025.21536247  .00000139  00000-0  00000+0 0  9992
2 39509 000.0129 037.5908 0001059 276.2048 285.6949 01.00272339  3784
1 39509U 14006B   15024.20122192  .00000140  00000-0  00000+0 0  9992
2 39509 000.0122 035.7856 0001013 275.4779 282.1387 01.00272079  3779
1 39509U 14006B   15022.80694642  .00000142  00000-0  00000+0 0  9992
2 39509 000.0117 034.8114 0000889 277.7559 137.5242 01.00271776  3766
1 39509U 14006B   15021.75265867  .00000000  00000-0  10000-3 0  9996
2 39509 000.0231 078.8564 0001439 244.0559 106.5970 01.00268801  3757
1 39509U 14006B   15020.56276480  .00000148  00000-0  00000+0 0  9995
2 39509 000.0205 075.7992 0001478 244.8011 039.3720 01.00271793  3742
1 39509U 14006B   15017.02587863  .00000158  00000-0  00000+0 0  9993
2 39509 000.0163 058.5775 0001577 228.1138 236.5735 01.00275863  3703
1 39509U 14006B   15015.83850794  .00000160  00000-0  00000+0 0  9999
2 39509 000.0147 058.3003 0001474 232.2360 164.0931 01.00275428  3694
1 39509U 14006B   15015.69401308  .00000000  00000-0  10000-3 0  9994
2 39509 000.0214 047.9318 0001341 244.6375 109.8789 01.00271721  3698
1 39509U 14006B   15014.64956407  .00000161  00000-0  00000+0 0  9996
2 39509 000.0098 051.1059 0001489 242.3686 091.9516 01.00274933  3686
1 39509U 14006B   15013.19152979  .00000161  00000-0  00000+0 0  9997
2 39509 000.0110 044.0025 0001512 247.4529 287.6292 01.00274292  3665
1 39509U 14006B   15012.17445839  .00000160  00000-0  00000+0 0  9993
2 39509 000.0108 044.0251 0001530 245.3213 282.5840 01.00273849  3659
1 39509U 14006B   15011.16426661  .00000158  00000-0  00000+0 0  9990
2 39509 000.0114 046.9370 0001582 237.3865 282.9388 01.00273444  3641
1 39509U 14006B   15010.15106414  .00000156  00000-0  00000+0 0  9997
2 39509 000.0116 047.0445 0001625 235.7578 278.7064 01.00273061  3637
1 39509U 14006B   15008.82356234  .00000153  00000-0  00000+0 0  9992
2 39509 000.0116 052.9044 0001629 230.4227 158.9687 01.00272403  3622
1 39509U 14006B   15007.68874398  .00000151  00000-0  00000+0 0  9999
2 39509 000.0155 052.6736 0001636 229.4098 110.5592 01.00271876  3613
1 39509U 14006B   15006.73778756  .00000000  00000-0  10000-3 0  9993
2 39509 000.0226 070.3875 0003149 162.9316 176.0795 01.00271376  3604
1 39509U 14006B   15006.73623742  .00000000  00000-0  10000-3 0  9997
2 39509 000.0233 068.5875 0003074 145.9676 194.2792 01.00271243  3600
1 39509U 14006B   15006.73153433  .00000000  00000-0  10000-3 0  9992
2 39509 000.0188 069.5078 0001048 209.4860 128.1277 01.00271229  3568
1 39509U 14006B   15006.72935323  .00000000  00000-0  10000-3 0  9997
2 39509 000.0213 065.0899 0001250 216.1520 125.0945 01.00271221  3562
1 39509U 14006B   15005.67814986  .00000000  00000-0  10000-3 0  9991
2 39509 000.0163 028.2508 0001008 330.6447 028.0318 01.00273540  3545
1 39509U 14006B   15005.62650924  .00000147  00000-0  00000+0 0  9993
2 39509 000.0184 054.9624 0001703 228.5797 084.6688 01.00270970  3595
1 39509U 14006B   15002.23297610  .00000146  00000-0  00000+0 0  9995
2 39509 000.0060 030.0839 0001249 249.9956 303.1375 01.00274310  3550
1 39509U 14006B   15001.22112493  .00000146  00000-0  00000+0 0  9998
2 39509 000.0049 022.1633 0001239 251.4744 304.3080 01.00273796  3545
1 39509U 14006B   14364.19592091  .00000146  00000-0  00000+0 0  9991
2 39509 000.0035 013.6815 0001232 252.3701 300.8160 01.00272838  3527
1 39509U 14006B   14363.18366478  .00000146  00000-0  00000+0 0  9997
2 39509 000.0035 000.5852 0001092 261.7674 299.1034 01.00272416  3511
1 39509U 14006B   14362.17253475  .00000147  00000-0  00000+0 0  9998
2 39509 000.0038 353.4239 0001104 267.7828 295.2476 01.00272085  3502
